{
    "links": {
        "self": "http://www.neowsapp.com/rest/v1/neo/3439360?api_key=iIulBulltgU6a56xZRHN4H3l9WmuAYTsLGpBGhQ2"
    },
    "id": "3439360",
    "neo_reference_id": "3439360",
    "name": "(2008 WE)",
    "designation": "2008 WE",
    "nasa_jpl_url": "http://ssd.jpl.nasa.gov/sbdb.cgi?sstr=3439360",
    "absolute_magnitude_h": 25.9,
    "estimated_diameter": {
        "kilometers": {
            "estimated_diameter_min": 0.0175612318,
            "estimated_diameter_max": 0.0392681082
        },
        "meters": {
            "estimated_diameter_min": 17.561231848,
            "estimated_diameter_max": 39.2681081809
        },
        "miles": {
            "estimated_diameter_min": 0.0109120402,
            "estimated_diameter_max": 0.0244000636
        },
        "feet": {
            "estimated_diameter_min": 57.6155918963,
            "estimated_diameter_max": 128.8323800441
        }
    },
    "is_potentially_hazardous_asteroid": false,
    "close_approach_data": [
        {
            "close_approach_date": "2008-11-14",
            "close_approach_date_full": "2008-Nov-14 19:34",
            "epoch_date_close_approach": 1226691240000,
            "relative_velocity": {
                "kilometers_per_second": "7.0101443926",
                "kilometers_per_hour": "25236.5198133056",
                "miles_per_hour": "15680.9919917731"
            },
            "miss_distance": {
                "astronomical": "0.0316778463",
                "lunar": "12.3226822107",
                "kilometers": "4738938.332667381",
                "miles": "2944639.7351606178"
            },
            "orbiting_body": "Earth"
        }
    ],
    "orbital_data": {
        "orbit_id": "12",
        "orbit_determination_date": "2017-04-06 09:02:11",
        "first_observation_date": "2008-11-18",
        "last_observation_date": "2008-11-23",
        "data_arc_in_days": 5,
        "observations_used": 39,
        "orbit_uncertainty": "8",
        "minimum_orbit_intersection": ".0272754",
        "jupiter_tisserand_invariant": "3.369",
        "epoch_osculation": "2454789.5",
        "eccentricity": ".5570649932539633",
        "semi_major_axis": "2.296648354355639",
        "inclination": "1.030271364642719",
        "ascending_node_longitude": "66.09393845353726",
        "orbital_period": "1271.276981323375",
        "perihelion_distance": "1.017265954329789",
        "perihelion_argument": "340.1164944676049",
        "aphelion_distance": "3.576030754381489",
        "perihelion_time": "2454780.330906573905",
        "mean_anomaly": "2.596502321593249",
        "mean_motion": ".2831798304294372",
        "equinox": "J2000",
        "orbit_class": {
            "orbit_class_type": "AMO",
            "orbit_class_description": "Near-Earth asteroid orbits similar to that of 1221 Amor",
            "orbit_class_range": "1.017 AU < q (perihelion) < 1.3 AU"
        }
    },
    "is_sentry_object": false
}